[{"OBJECT_NAME":"STARLINK-36552","OBJECT_ID":"2026-012L","EPOCH":"2026-03-09T22:49:41.343744","MEAN_MOTION":15.27600712,"ECCENTRICITY":3.977e-5,"INCLINATION":42.9977,"RA_OF_ASC_NODE":312.7612,"ARG_OF_PERICENTER":236.0011,"MEAN_ANOMALY":124.0803,"EPHEMERIS_TYPE":0,"CLASSIFICATION_TYPE":"U","NORAD_CAT_ID":67503,"ELEMENT_SET_NO":999,"REV_AT_EPOCH":780,"BSTAR":0.0010329756,"MEAN_MOTION_DOT":0.0002829,"MEAN_MOTION_DDOT":0},{"OBJECT_NAME":"OKEAN-1","OBJECT_ID":"1988-056A","EPOCH":"2026-03-09T21:19:04.260000","MEAN_MOTION":15.31672069,"ECCENTRICITY":0.00129431,"INCLINATION":82.4671,"RA_OF_ASC_NODE":262.7586,"ARG_OF_PERICENTER":168.0696,"MEAN_ANOMALY":192.0855,"EPHEMERIS_TYPE":0,"CLASSIFICATION_TYPE":"U","NORAD_CAT_ID":19274,"ELEMENT_SET_NO":999,"REV_AT_EPOCH":3511,"BSTAR":0.00038371192,"MEAN_MOTION_DOT":0.00011798,"MEAN_MOTION_DDOT":0}]
